[{"OBJECT_NAME":"ONEWEB-0567","OBJECT_ID":"2023-004H","EPOCH":"2026-04-21T09:09:48.968064","MEAN_MOTION":13.18686295,"ECCENTRICITY":0.0001656,"INCLINATION":87.9201,"RA_OF_ASC_NODE":346.7729,"ARG_OF_PERICENTER":70.013,"MEAN_ANOMALY":290.118,"EPHEMERIS_TYPE":0,"CLASSIFICATION_TYPE":"U","NORAD_CAT_ID":55147,"ELEMENT_SET_NO":999,"REV_AT_EPOCH":16221,"BSTAR":0.00011227,"MEAN_MOTION_DOT":5.7e-07,"MEAN_MOTION_DDOT":0.0},{"OBJECT_NAME":"ONEWEB-0569","OBJECT_ID":"2023-004J","EPOCH":"2026-04-21T07:58:04.384416","MEAN_MOTION":13.13469597,"ECCENTRICITY":0.0002149,"INCLINATION":87.898,"RA_OF_ASC_NODE":331.5408,"ARG_OF_PERICENTER":59.5785,"MEAN_ANOMALY":300.5557,"EPHEMERIS_TYPE":0,"CLASSIFICATION_TYPE":"U","NORAD_CAT_ID":55148,"ELEMENT_SET_NO":999,"REV_AT_EPOCH":16271,"BSTAR":-0.0010007,"MEAN_MOTION_DOT":-3.53e-06,"MEAN_MOTION_DDOT":0.0},{"OBJECT_NAME":"ONEWEB-0570","OBJECT_ID":"2023-004K","EPOCH":"2026-04-21T08:55:33.366144","MEAN_MOTION":13.18684859,"ECCENTRICITY":0.0001344,"INCLINATION":87.9202,"RA_OF_ASC_NODE":346.7726,"ARG_OF_PERICENTER":85.19,"MEAN_ANOMALY":274.9385,"EPHEMERIS_TYPE":0,"CLASSIFICATION_TYPE":"U","NORAD_CAT_ID":55149,"ELEMENT_SET_NO":999,"REV_AT_EPOCH":16220,"BSTAR":0.00028544999999999997,"MEAN_MOTION_DOT":1.25e-06,"MEAN_MOTION_DDOT":0.0},{"OBJECT_NAME":"ONEWEB-0571","OBJECT_ID":"2023-004L","EPOCH":"2026-04-21T08:46:03.362880","MEAN_MOTION":13.18685085,"ECCENTRICITY":0.0001723,"INCLINATION":87.9205,"RA_OF_ASC_NODE":346.773,"ARG_OF_PERICENTER":41.4909,"MEAN_ANOMALY":318.6354,"EPHEMERIS_TYPE":0,"CLASSIFICATION_TYPE":"U","NORAD_CAT_ID":55150,"ELEMENT_SET_NO":999,"REV_AT_EPOCH":16221,"BSTAR":0.00020964,"MEAN_MOTION_DOT":9.6e-07,"MEAN_MOTION_DDOT":0.0},{"OBJECT_NAME":"ONEWEB-0572","OBJECT_ID":"2023-004M","EPOCH":"2026-04-21T11:47:25.522368","MEAN_MOTION":13.17647809,"ECCENTRICITY":0.0001701,"INCLINATION":87.9184,"RA_OF_ASC_NODE":17.1302,"ARG_OF_PERICENTER":73.4159,"MEAN_ANOMALY":286.7159,"EPHEMERIS_TYPE":0,"CLASSIFICATION_TYPE":"U","NORAD_CAT_ID":55151,"ELEMENT_SET_NO":999,"REV_AT_EPOCH":16001,"BSTAR":3.8982e-05,"MEAN_MOTION_DOT":2.8e-07,"MEAN_MOTION_DDOT":0.0},{"OBJECT_NAME":"ONEWEB-0573","OBJECT_ID":"2023-004N","EPOCH":"2026-04-20T14:23:56.575968","MEAN_MOTION":13.18685063,"ECCENTRICITY":0.0001165,"INCLINATION":87.9208,"RA_OF_ASC_NODE":346.9264,"ARG_OF_PERICENTER":60.5795,"MEAN_ANOMALY":299.5453,"EPHEMERIS_TYPE":0,"CLASSIFICATION_TYPE":"U","NORAD_CAT_ID":55152,"ELEMENT_SET_NO":999,"REV_AT_EPOCH":16210,"BSTAR":-8.7105e-05,"MEAN_MOTION_DOT":-2.1e-07,"MEAN_MOTION_DDOT":0.0},{"OBJECT_NAME":"ONEWEB-0588","OBJECT_ID":"2023-004P","EPOCH":"2026-04-21T08:27:04.055328","MEAN_MOTION":13.18683959,"ECCENTRICITY":0.0001146,"INCLINATION":87.9197,"RA_OF_ASC_NODE":346.7778,"ARG_OF_PERICENTER":82.1238,"MEAN_ANOMALY":278.0024,"EPHEMERIS_TYPE":0,"CLASSIFICATION_TYPE":"U","NORAD_CAT_ID":55153,"ELEMENT_SET_NO":999,"REV_AT_EPOCH":16220,"BSTAR":0.0011942,"MEAN_MOTION_DOT":4.84e-06,"MEAN_MOTION_DDOT":0.0},{"OBJECT_NAME":"ONEWEB-0598","OBJECT_ID":"2023-004Q","EPOCH":"2026-04-21T11:19:19.974144","MEAN_MOTION":13.11415107,"ECCENTRICITY":0.0002006,"INCLINATION":87.8915,"RA_OF_ASC_NODE":32.3452,"ARG_OF_PERICENTER":55.7011,"MEAN_ANOMALY":304.4306,"EPHEMERIS_TYPE":0,"CLASSIFICATION_TYPE":"U","NORAD_CAT_ID":55154,"ELEMENT_SET_NO":999,"REV_AT_EPOCH":15846,"BSTAR":-9.1539e-05,"MEAN_MOTION_DOT":-2e-07,"MEAN_MOTION_DDOT":0.0},{"OBJECT_NAME":"ONEWEB-0599","OBJECT_ID":"2023-004R","EPOCH":"2026-04-21T05:23:29.965632","MEAN_MOTION":13.17647851,"ECCENTRICITY":0.0002059,"INCLINATION":87.9182,"RA_OF_ASC_NODE":17.1814,"ARG_OF_PERICENTER":76.206,"MEAN_ANOMALY":283.9301,"EPHEMERIS_TYPE":0,"CLASSIFICATION_TYPE":"U","NORAD_CAT_ID":55155,"ELEMENT_SET_NO":999,"REV_AT_EPOCH":15998,"BSTAR":0.00016062999999999999,"MEAN_MOTION_DOT":7.5e-07,"MEAN_MOTION_DDOT":0.0},{"OBJECT_NAME":"ONEWEB-0614","OBJECT_ID":"2023-004S","EPOCH":"2026-04-21T11:12:01.393056","MEAN_MOTION":13.11416648,"ECCENTRICITY":0.0001666,"INCLINATION":87.8914,"RA_OF_ASC_NODE":32.3541,"ARG_OF_PERICENTER":83.2353,"MEAN_ANOMALY":276.8964,"EPHEMERIS_TYPE":0,"CLASSIFICATION_TYPE":"U","NORAD_CAT_ID":55156,"ELEMENT_SET_NO":999,"REV_AT_EPOCH":15840,"BSTAR":0.0017180000000000001,"MEAN_MOTION_DOT":6.22e-06,"MEAN_MOTION_DDOT":0.0},{"OBJECT_NAME":"ONEWEB-0616","OBJECT_ID":"2023-004T","EPOCH":"2026-04-21T11:52:17.787648","MEAN_MOTION":13.17648468,"ECCENTRICITY":0.0002757,"INCLINATION":87.9186,"RA_OF_ASC_NODE":17.1306,"ARG_OF_PERICENTER":77.3066,"MEAN_ANOMALY":282.8373,"EPHEMERIS_TYPE":0,"CLASSIFICATION_TYPE":"U","NORAD_CAT_ID":55157,"ELEMENT_SET_NO":999,"REV_AT_EPOCH":16023,"BSTAR":1.0497e-05,"MEAN_MOTION_DOT":1.7e-07,"MEAN_MOTION_DDOT":0.0},{"OBJECT_NAME":"ONEWEB-0617","OBJECT_ID":"2023-004U","EPOCH":"2026-04-21T07:15:11.922912","MEAN_MOTION":13.11418326,"ECCENTRICITY":0.000144,"INCLINATION":87.8931,"RA_OF_ASC_NODE":32.3752,"ARG_OF_PERICENTER":85.2446,"MEAN_ANOMALY":274.8846,"EPHEMERIS_TYPE":0,"CLASSIFICATION_TYPE":"U","NORAD_CAT_ID":55158,"ELEMENT_SET_NO":999,"REV_AT_EPOCH":15840,"BSTAR":0.0014495,"MEAN_MOTION_DOT":5.26e-06,"MEAN_MOTION_DDOT":0.0},{"OBJECT_NAME":"ONEWEB-0618","OBJECT_ID":"2023-004V","EPOCH":"2026-04-21T12:08:56.563008","MEAN_MOTION":15.12625467,"ECCENTRICITY":0.0014682,"INCLINATION":86.9144,"RA_OF_ASC_NODE":200.6207,"ARG_OF_PERICENTER":137.258,"MEAN_ANOMALY":222.9805,"EPHEMERIS_TYPE":0,"CLASSIFICATION_TYPE":"U","NORAD_CAT_ID":55159,"ELEMENT_SET_NO":999,"REV_AT_EPOCH":17369,"BSTAR":0.00024677,"MEAN_MOTION_DOT":4.352e-05,"MEAN_MOTION_DDOT":0.0},{"OBJECT_NAME":"ONEWEB-0619","OBJECT_ID":"2023-004W","EPOCH":"2026-04-21T10:49:07.098240","MEAN_MOTION":13.17649393,"ECCENTRICITY":0.0001983,"INCLINATION":87.919,"RA_OF_ASC_NODE":17.115,"ARG_OF_PERICENTER":92.7285,"MEAN_ANOMALY":267.4073,"EPHEMERIS_TYPE":0,"CLASSIFICATION_TYPE":"U","NORAD_CAT_ID":55160,"ELEMENT_SET_NO":999,"REV_AT_EPOCH":16012,"BSTAR":7.6271e-05,"MEAN_MOTION_DOT":4.2e-07,"MEAN_MOTION_DDOT":0.0},{"OBJECT_NAME":"ONEWEB-0620","OBJECT_ID":"2023-004X","EPOCH":"2026-04-21T07:07:52.370688","MEAN_MOTION":13.11418116,"ECCENTRICITY":0.0001703,"INCLINATION":87.8916,"RA_OF_ASC_NODE":32.3879,"ARG_OF_PERICENTER":70.8422,"MEAN_ANOMALY":289.289,"EPHEMERIS_TYPE":0,"CLASSIFICATION_TYPE":"U","NORAD_CAT_ID":55161,"ELEMENT_SET_NO":999,"REV_AT_EPOCH":15837,"BSTAR":0.0013836000000000002,"MEAN_MOTION_DOT":5.03e-06,"MEAN_MOTION_DDOT":0.0},{"OBJECT_NAME":"ONEWEB-0621","OBJECT_ID":"2023-004Y","EPOCH":"2026-04-21T11:26:39.559200","MEAN_MOTION":13.11414894,"ECCENTRICITY":0.0001747,"INCLINATION":87.8926,"RA_OF_ASC_NODE":32.336,"ARG_OF_PERICENTER":85.6823,"MEAN_ANOMALY":274.4504,"EPHEMERIS_TYPE":0,"CLASSIFICATION_TYPE":"U","NORAD_CAT_ID":55162,"ELEMENT_SET_NO":999,"REV_AT_EPOCH":15837,"BSTAR":0.00030956,"MEAN_MOTION_DOT":1.22e-06,"MEAN_MOTION_DDOT":0.0},{"OBJECT_NAME":"ONEWEB-0622","OBJECT_ID":"2023-004Z","EPOCH":"2026-04-21T11:33:59.115744","MEAN_MOTION":13.11415296,"ECCENTRICITY":0.0001115,"INCLINATION":87.8929,"RA_OF_ASC_NODE":32.3367,"ARG_OF_PERICENTER":85.2429,"MEAN_ANOMALY":274.8826,"EPHEMERIS_TYPE":0,"CLASSIFICATION_TYPE":"U","NORAD_CAT_ID":55163,"ELEMENT_SET_NO":999,"REV_AT_EPOCH":15836,"BSTAR":-0.00032498,"MEAN_MOTION_DOT":-1.02e-06,"MEAN_MOTION_DDOT":0.0},{"OBJECT_NAME":"ONEWEB-0623","OBJECT_ID":"2023-004AA","EPOCH":"2026-04-21T12:31:09.449760","MEAN_MOTION":13.17647685,"ECCENTRICITY":0.0001534,"INCLINATION":87.9182,"RA_OF_ASC_NODE":17.1384,"ARG_OF_PERICENTER":104.6078,"MEAN_ANOMALY":255.5224,"EPHEMERIS_TYPE":0,"CLASSIFICATION_TYPE":"U","NORAD_CAT_ID":55164,"ELEMENT_SET_NO":999,"REV_AT_EPOCH":16012,"BSTAR":-1.0973e-05,"MEAN_MOTION_DOT":9e-08,"MEAN_MOTION_DDOT":0.0},{"OBJECT_NAME":"ONEWEB-0624","OBJECT_ID":"2023-004AB","EPOCH":"2026-04-21T10:03:33.817824","MEAN_MOTION":13.12927281,"ECCENTRICITY":0.0001726,"INCLINATION":87.9,"RA_OF_ASC_NODE":1.8747,"ARG_OF_PERICENTER":86.9007,"MEAN_ANOMALY":273.2319,"EPHEMERIS_TYPE":0,"CLASSIFICATION_TYPE":"U","NORAD_CAT_ID":55165,"ELEMENT_SET_NO":999,"REV_AT_EPOCH":16062,"BSTAR":-0.0008232500000000001,"MEAN_MOTION_DOT":-2.86e-06,"MEAN_MOTION_DDOT":0.0},{"OBJECT_NAME":"ONEWEB-0625","OBJECT_ID":"2023-004AC","EPOCH":"2026-04-21T10:27:14.974272","MEAN_MOTION":13.17648387,"ECCENTRICITY":0.0002013,"INCLINATION":87.9194,"RA_OF_ASC_NODE":17.1495,"ARG_OF_PERICENTER":79.7426,"MEAN_ANOMALY":280.3932,"EPHEMERIS_TYPE":0,"CLASSIFICATION_TYPE":"U","NORAD_CAT_ID":55166,"ELEMENT_SET_NO":999,"REV_AT_EPOCH":16010,"BSTAR":0.00024631,"MEAN_MOTION_DOT":1.09e-06,"MEAN_MOTION_DDOT":0.0},{"OBJECT_NAME":"ONEWEB-0626","OBJECT_ID":"2023-004AD","EPOCH":"2026-04-21T10:12:39.325824","MEAN_MOTION":13.17651891,"ECCENTRICITY":0.0001774,"INCLINATION":87.92,"RA_OF_ASC_NODE":17.1516,"ARG_OF_PERICENTER":66.7027,"MEAN_ANOMALY":293.4291,"EPHEMERIS_TYPE":0,"CLASSIFICATION_TYPE":"U","NORAD_CAT_ID":55167,"ELEMENT_SET_NO":999,"REV_AT_EPOCH":16010,"BSTAR":0.00013941000000000002,"MEAN_MOTION_DOT":6.7e-07,"MEAN_MOTION_DDOT":0.0},{"OBJECT_NAME":"ONEWEB-0627","OBJECT_ID":"2023-004AE","EPOCH":"2026-04-21T11:44:59.714592","MEAN_MOTION":13.17647683,"ECCENTRICITY":0.0001568,"INCLINATION":87.9186,"RA_OF_ASC_NODE":17.1387,"ARG_OF_PERICENTER":98.9861,"MEAN_ANOMALY":261.1448,"EPHEMERIS_TYPE":0,"CLASSIFICATION_TYPE":"U","NORAD_CAT_ID":55168,"ELEMENT_SET_NO":999,"REV_AT_EPOCH":16011,"BSTAR":-5.8341e-07,"MEAN_MOTION_DOT":1.3e-07,"MEAN_MOTION_DDOT":0.0},{"OBJECT_NAME":"ONEWEB-0628","OBJECT_ID":"2023-004AF","EPOCH":"2026-04-21T10:56:27.015072","MEAN_MOTION":13.12442356,"ECCENTRICITY":0.0001658,"INCLINATION":87.9,"RA_OF_ASC_NODE":1.9245,"ARG_OF_PERICENTER":104.1275,"MEAN_ANOMALY":256.0038,"EPHEMERIS_TYPE":0,"CLASSIFICATION_TYPE":"U","NORAD_CAT_ID":55169,"ELEMENT_SET_NO":999,"REV_AT_EPOCH":16059,"BSTAR":0.0010199999999999999,"MEAN_MOTION_DOT":3.8e-06,"MEAN_MOTION_DDOT":0.0}]